[{"COMMENT":"GENERATED VIA SPACETRACK.ORG API","ORIGINATOR":"18 SPCS","NORAD_CAT_ID":"43476","OBJECT_NAME":"GRACE-FO 1","OBJECT_TYPE":"PAYLOAD","CLASSIFICATION_TYPE":"U","INTLDES":"18047A","EPOCH":"2023-10-28 20:54:42","EPOCH_MICROSECONDS":"153408","MEAN_MOTION":"15.2717778","ECCENTRICITY":"0.001104","INCLINATION":"88.9833","RA_OF_ASC_NODE":"331.0046","ARG_OF_PERICENTER":"235.9414","MEAN_ANOMALY":"124.0788","EPHEMERIS_TYPE":"0","ELEMENT_SET_NO":"999","REV_AT_EPOCH":"30239","BSTAR":"0.00015943","MEAN_MOTION_DOT":"0.0000428","MEAN_MOTION_DDOT":"0","FILE":"4058258","TLE_LINE0":"0 GRACE-FO 1","TLE_LINE1":"1 43476U 18047A   23301.87132122  .00004280  00000-0  15943-3 0  9998","TLE_LINE2":"2 43476  88.9833 331.0046 0011040 235.9414 124.0788 15.27177780302398","OBJECT_ID":"2018-047A","OBJECT_NUMBER":"43476","SEMIMAJOR_AXIS":"6862.391","PERIOD":"94.292","APOGEE":"491.832","PERIGEE":"476.680","DECAYED":"0"},{"COMMENT":"GENERATED VIA SPACETRACK.ORG API","ORIGINATOR":"18 SPCS","NORAD_CAT_ID":"43476","OBJECT_NAME":"GRACE-FO 1","OBJECT_TYPE":"PAYLOAD","CLASSIFICATION_TYPE":"U","INTLDES":"18047A","EPOCH":"2023-10-29 04:46:29","EPOCH_MICROSECONDS":"424288","MEAN_MOTION":"15.27181533","ECCENTRICITY":"0.0011082","INCLINATION":"88.9832","RA_OF_ASC_NODE":"330.9598","ARG_OF_PERICENTER":"234.395","MEAN_ANOMALY":"125.6267","EPHEMERIS_TYPE":"0","ELEMENT_SET_NO":"999","REV_AT_EPOCH":"30244","BSTAR":"0.00017228","MEAN_MOTION_DOT":"0.00004623","MEAN_MOTION_DDOT":"0","FILE":"4058357","TLE_LINE0":"0 GRACE-FO 1","TLE_LINE1":"1 43476U 18047A   23302.19895167  .00004623  00000-0  17228-3 0  9998","TLE_LINE2":"2 43476  88.9832 330.9598 0011082 234.3950 125.6267 15.27181533302447","OBJECT_ID":"2018-047A","OBJECT_NUMBER":"43476","SEMIMAJOR_AXIS":"6862.380","PERIOD":"94.291","APOGEE":"491.849","PERIGEE":"476.640","DECAYED":"0"},{"COMMENT":"GENERATED VIA SPACETRACK.ORG API","ORIGINATOR":"18 SPCS","NORAD_CAT_ID":"43476","OBJECT_NAME":"GRACE-FO 1","OBJECT_TYPE":"PAYLOAD","CLASSIFICATION_TYPE":"U","INTLDES":"18047A","EPOCH":"2023-10-29 14:12:38","EPOCH_MICROSECONDS":"89728","MEAN_MOTION":"15.27184876","ECCENTRICITY":"0.0011132","INCLINATION":"88.9831","RA_OF_ASC_NODE":"330.906","ARG_OF_PERICENTER":"232.4953","MEAN_ANOMALY":"127.5285","EPHEMERIS_TYPE":"0","ELEMENT_SET_NO":"999","REV_AT_EPOCH":"30250","BSTAR":"0.00016894","MEAN_MOTION_DOT":"0.00004534","MEAN_MOTION_DDOT":"0","FILE":"4059417","TLE_LINE0":"0 GRACE-FO 1","TLE_LINE1":"1 43476U 18047A   23302.59210752  .00004534  00000-0  16894-3 0  9992","TLE_LINE2":"2 43476  88.9831 330.9060 0011132 232.4953 127.5285 15.27184876302509","OBJECT_ID":"2018-047A","OBJECT_NUMBER":"43476","SEMIMAJOR_AXIS":"6862.369","PERIOD":"94.291","APOGEE":"491.874","PERIGEE":"476.595","DECAYED":"0"},{"COMMENT":"GENERATED VIA SPACETRACK.ORG API","ORIGINATOR":"18 SPCS","NORAD_CAT_ID":"43476","OBJECT_NAME":"GRACE-FO 1","OBJECT_TYPE":"PAYLOAD","CLASSIFICATION_TYPE":"U","INTLDES":"18047A","EPOCH":"2023-10-29 20:30:03","EPOCH_MICROSECONDS":"826080","MEAN_MOTION":"15.27187141","ECCENTRICITY":"0.0011161","INCLINATION":"88.9831","RA_OF_ASC_NODE":"330.8701","ARG_OF_PERICENTER":"231.2463","MEAN_ANOMALY":"128.7789","EPHEMERIS_TYPE":"0","ELEMENT_SET_NO":"999","REV_AT_EPOCH":"30254","BSTAR":"0.00017053","MEAN_MOTION_DOT":"0.00004577","MEAN_MOTION_DDOT":"0","FILE":"4059994","TLE_LINE0":"0 GRACE-FO 1","TLE_LINE1":"1 43476U 18047A   23302.85421095  .00004577  00000-0  17053-3 0  9990","TLE_LINE2":"2 43476  88.9831 330.8701 0011161 231.2463 128.7789 15.27187141302549","OBJECT_ID":"2018-047A","OBJECT_NUMBER":"43476","SEMIMAJOR_AXIS":"6862.363","PERIOD":"94.291","APOGEE":"491.887","PERIGEE":"476.569","DECAYED":"0"},{"COMMENT":"GENERATED VIA SPACETRACK.ORG API","ORIGINATOR":"18 SPCS","NORAD_CAT_ID":"43476","OBJECT_NAME":"GRACE-FO 1","OBJECT_TYPE":"PAYLOAD","CLASSIFICATION_TYPE":"U","INTLDES":"18047A","EPOCH":"2023-10-30 12:13:38","EPOCH_MICROSECONDS":"36064","MEAN_MOTION":"15.27192222","ECCENTRICITY":"0.0011248","INCLINATION":"88.983","RA_OF_ASC_NODE":"330.7804","ARG_OF_PERICENTER":"228.1901","MEAN_ANOMALY":"131.8389","EPHEMERIS_TYPE":"0","ELEMENT_SET_NO":"999","REV_AT_EPOCH":"30264","BSTAR":"0.00016263","MEAN_MOTION_DOT":"0.00004367","MEAN_MOTION_DDOT":"0","FILE":"4060651","TLE_LINE0":"0 GRACE-FO 1","TLE_LINE1":"1 43476U 18047A   23303.50946801  .00004367  00000-0  16263-3 0  9999","TLE_LINE2":"2 43476  88.9830 330.7804 0011248 228.1901 131.8389 15.27192222302647","OBJECT_ID":"2018-047A","OBJECT_NUMBER":"43476","SEMIMAJOR_AXIS":"6862.347","PERIOD":"94.291","APOGEE":"491.931","PERIGEE":"476.494","DECAYED":"0"},{"COMMENT":"GENERATED VIA SPACETRACK.ORG API","ORIGINATOR":"18 SPCS","NORAD_CAT_ID":"43476","OBJECT_NAME":"GRACE-FO 1","OBJECT_TYPE":"PAYLOAD","CLASSIFICATION_TYPE":"U","INTLDES":"18047A","EPOCH":"2023-10-30 21:39:46","EPOCH_MICROSECONDS":"446624","MEAN_MOTION":"15.27196186","ECCENTRICITY":"0.0011297","INCLINATION":"88.9828","RA_OF_ASC_NODE":"330.7266","ARG_OF_PERICENTER":"226.3871","MEAN_ANOMALY":"133.6442","EPHEMERIS_TYPE":"0","ELEMENT_SET_NO":"999","REV_AT_EPOCH":"30270","BSTAR":"0.00017179","MEAN_MOTION_DOT":"0.00004612","MEAN_MOTION_DDOT":"0","FILE":"4061878","TLE_LINE0":"0 GRACE-FO 1","TLE_LINE1":"1 43476U 18047A   23303.90262091  .00004612  00000-0  17179-3 0  9995","TLE_LINE2":"2 43476  88.9828 330.7266 0011297 226.3871 133.6442 15.27196186302706","OBJECT_ID":"2018-047A","OBJECT_NUMBER":"43476","SEMIMAJOR_AXIS":"6862.336","PERIOD":"94.290","APOGEE":"491.953","PERIGEE":"476.448","DECAYED":"0"},{"COMMENT":"GENERATED VIA SPACETRACK.ORG API","ORIGINATOR":"18 SPCS","NORAD_CAT_ID":"43476","OBJECT_NAME":"GRACE-FO 1","OBJECT_TYPE":"PAYLOAD","CLASSIFICATION_TYPE":"U","INTLDES":"18047A","EPOCH":"2023-10-31 11:48:58","EPOCH_MICROSECONDS":"952736","MEAN_MOTION":"15.27200213","ECCENTRICITY":"0.0011378","INCLINATION":"88.9828","RA_OF_ASC_NODE":"330.6459","ARG_OF_PERICENTER":"223.7191","MEAN_ANOMALY":"136.3158","EPHEMERIS_TYPE":"0","ELEMENT_SET_NO":"999","REV_AT_EPOCH":"30279","BSTAR":"0.00015586","MEAN_MOTION_DOT":"0.00004188","MEAN_MOTION_DDOT":"0","FILE":"4063043","TLE_LINE0":"0 GRACE-FO 1","TLE_LINE1":"1 43476U 18047A   23304.49234899  .00004188  00000-0  15586-3 0  9993","TLE_LINE2":"2 43476  88.9828 330.6459 0011378 223.7191 136.3158 15.27200213302795","OBJECT_ID":"2018-047A","OBJECT_NUMBER":"43476","SEMIMAJOR_AXIS":"6862.324","PERIOD":"94.290","APOGEE":"491.997","PERIGEE":"476.381","DECAYED":"0"},{"COMMENT":"GENERATED VIA SPACETRACK.ORG API","ORIGINATOR":"18 SPCS","NORAD_CAT_ID":"43476","OBJECT_NAME":"GRACE-FO 1","OBJECT_TYPE":"PAYLOAD","CLASSIFICATION_TYPE":"U","INTLDES":"18047A","EPOCH":"2023-10-31 19:40:45","EPOCH_MICROSECONDS":"817536","MEAN_MOTION":"15.27202862","ECCENTRICITY":"0.0011429","INCLINATION":"88.9827","RA_OF_ASC_NODE":"330.6011","ARG_OF_PERICENTER":"222.2436","MEAN_ANOMALY":"137.7934","EPHEMERIS_TYPE":"0","ELEMENT_SET_NO":"999","REV_AT_EPOCH":"30284","BSTAR":"0.00015269","MEAN_MOTION_DOT":"0.00004104","MEAN_MOTION_DDOT":"0","FILE":"4063237","TLE_LINE0":"0 GRACE-FO 1","TLE_LINE1":"1 43476U 18047A   23304.81997474  .00004104  00000-0  15269-3 0  9990","TLE_LINE2":"2 43476  88.9827 330.6011 0011429 222.2436 137.7934 15.27202862302846","OBJECT_ID":"2018-047A","OBJECT_NUMBER":"43476","SEMIMAJOR_AXIS":"6862.316","PERIOD":"94.290","APOGEE":"492.024","PERIGEE":"476.338","DECAYED":"0"},{"COMMENT":"GENERATED VIA SPACETRACK.ORG API","ORIGINATOR":"18 SPCS","NORAD_CAT_ID":"43476","OBJECT_NAME":"GRACE-FO 1","OBJECT_TYPE":"PAYLOAD","CLASSIFICATION_TYPE":"U","INTLDES":"18047A","EPOCH":"2023-10-31 21:15:07","EPOCH_MICROSECONDS":"187904","MEAN_MOTION":"15.27203458","ECCENTRICITY":"0.001144","INCLINATION":"88.9827","RA_OF_ASC_NODE":"330.5921","ARG_OF_PERICENTER":"221.9546","MEAN_ANOMALY":"138.0828","EPHEMERIS_TYPE":"0","ELEMENT_SET_NO":"999","REV_AT_EPOCH":"30285","BSTAR":"0.000156","MEAN_MOTION_DOT":"0.00004192","MEAN_MOTION_DDOT":"0","FILE":"4063660","TLE_LINE0":"0 GRACE-FO 1","TLE_LINE1":"1 43476U 18047A   23304.88549986  .00004192  00000-0  15600-3 0  9994","TLE_LINE2":"2 43476  88.9827 330.5921 0011440 221.9546 138.0828 15.27203458302855","OBJECT_ID":"2018-047A","OBJECT_NUMBER":"43476","SEMIMAJOR_AXIS":"6862.314","PERIOD":"94.290","APOGEE":"492.029","PERIGEE":"476.328","DECAYED":"0"},{"COMMENT":"GENERATED VIA SPACETRACK.ORG API","ORIGINATOR":"18 SPCS","NORAD_CAT_ID":"43476","OBJECT_NAME":"GRACE-FO 1","OBJECT_TYPE":"PAYLOAD","CLASSIFICATION_TYPE":"U","INTLDES":"18047A","EPOCH":"2023-11-01 14:33:02","EPOCH_MICROSECONDS":"110752","MEAN_MOTION":"15.27208789","ECCENTRICITY":"0.0011551","INCLINATION":"88.9827","RA_OF_ASC_NODE":"330.4934","ARG_OF_PERICENTER":"218.6999","MEAN_ANOMALY":"141.3424","EPHEMERIS_TYPE":"0","ELEMENT_SET_NO":"999","REV_AT_EPOCH":"30296","BSTAR":"0.00014229","MEAN_MOTION_DOT":"0.00003827","MEAN_MOTION_DDOT":"0","FILE":"4064888","TLE_LINE0":"0 GRACE-FO 1","TLE_LINE1":"1 43476U 18047A   23305.60627443  .00003827  00000-0  14229-3 0  9990","TLE_LINE2":"2 43476  88.9827 330.4934 0011551 218.6999 141.3424 15.27208789302969","OBJECT_ID":"2018-047A","OBJECT_NUMBER":"43476","SEMIMAJOR_AXIS":"6862.298","PERIOD":"94.290","APOGEE":"492.090","PERIGEE":"476.236","DECAYED":"0"}]